NORAD_CAT_ID,OBJECT_NAME,OBJECT_TYPE,EPOCH,MEAN_MOTION,ECCENTRICITY,INCLINATION,RA_OF_ASC_NODE,ARG_OF_PERICENTER,MEAN_ANOMALY,BSTAR,MEAN_MOTION_DOT,MEAN_MOTION_DDOT,TLE_LINE0,TLE_LINE1,TLE_LINE2,SEMIMAJOR_AXIS,PERIOD,APOGEE,PERIGEE,DECAYED
49440.0,STARLINK-3105,PAYLOAD,2022-09-27 06:22:20,15.08847479,0.0002254999999999,53.2159,102.9082,45.4733,314.6443,-1.2517e-05,-4.88e-06,0.0,0 STARLINK-3105,1 49440U 21104AJ  22270.26551186 -.00000488  00000-0 -12517-4 0  9998,2 49440  53.2159 102.9082 0002255  45.4733 314.6443 15.08847479 48785,6917.858,95.437,541.283,538.163,0.0
49440.0,STARLINK-3105,PAYLOAD,2022-09-27 19:05:25,15.08841745,0.0002145,53.2158,100.5294,44.4904,315.626,7.9859e-05,9.83e-06,0.0,0 STARLINK-3105,1 49440U 21104AJ  22270.79543138  .00000983  00000-0  79859-4 0  9994,2 49440  53.2158 100.5294 0002145  44.4904 315.6260 15.08841745 48867,6917.875,95.437,541.224,538.256,0.0
49440.0,STARLINK-3105,PAYLOAD,2022-09-27 20:40:47,15.08851186,0.0002358,53.2154,100.2335,44.3356,315.7824,6.5214e-05,7.4999999999999985e-06,0.0,0 STARLINK-3105,1 49440U 21104AJ  22270.86166556  .00000750  00000-0  65214-4 0  9999,2 49440  53.2154 100.2335 0002358  44.3356 315.7824 15.08851186 48870,6917.846,95.437,541.342,538.08,0.0
49440.0,STARLINK-3105,PAYLOAD,2022-09-29 02:53:08,15.08841812,0.0001939,53.2148,94.5814,46.1067,314.0085,-8.1764e-05,-1.589e-05,0.0,0 STARLINK-3105,1 49440U 21104AJ  22272.12023426 -.00001589  00000-0 -81764-4 0  9999,2 49440  53.2148  94.5814 0001939  46.1067 314.0085 15.08841812 50131,6917.875,95.437,541.081,538.398,0.0
49440.0,STARLINK-3105,PAYLOAD,2022-09-29 12:25:28,15.08825409,0.0001952,53.2151,92.796,44.5925,315.5224,-0.00016619,-2.931e-05,0.0,0 STARLINK-3105,1 49440U 21104AJ  22272.51768849 -.00002931  00000-0 -16619-3 0  9995,2 49440  53.2151  92.7960 0001952  44.5925 315.5224 15.08825409 50198,6917.925,95.438,541.14,538.44,0.0
49440.0,STARLINK-3105,PAYLOAD,2022-09-29 18:47:00,15.08826494,0.0002209,53.2161,91.6087,41.0699,319.0459,-0.0001452,-2.598e-05,0.0,0 STARLINK-3105,1 49440U 21104AJ  22272.78264996 -.00002598  00000-0 -14520-3 0  9996,2 49440  53.2161  91.6087 0002209  41.0699 319.0459 15.08826494 49162,6917.922,95.438,541.315,538.259,0.0
49440.0,STARLINK-3105,PAYLOAD,2022-09-30 12:16:15,15.08822389,0.0002088,53.2162,88.3375,39.3689,320.7455,4.1664e-05,3.75e-06,0.0,0 STARLINK-3105,1 49440U 21104AJ  22273.51128981  .00000375  00000-0  41664-4 0  9990,2 49440  53.2162  88.3375 0002088  39.3689 320.7455 15.08822389 49276,6917.934,95.439,541.244,538.355,0.0
49440.0,STARLINK-3105,PAYLOAD,2022-09-30 13:51:38,15.08824562,0.0002089,53.2162,88.04,39.591,320.5234,5.915e-05,6.53e-06,0.0,0 STARLINK-3105,1 49440U 21104AJ  22273.57752869  .00000653  00000-0  59150-4 0  9992,2 49440  53.2162  88.0400 0002089  39.5910 320.5234 15.08824562 50351,6917.928000000001,95.439,541.238,538.347,0.0
49440.0,STARLINK-3105,PAYLOAD,2022-09-30 20:13:10,15.08828637,0.0002106,53.2163,86.8505,40.0182,320.0965,9.0863e-05,1.158e-05,0.0,0 STARLINK-3105,1 49440U 21104AJ  22273.84248779  .00001158  00000-0  90863-4 0  9999,2 49440  53.2163  86.8505 0002106  40.0182 320.0965 15.08828637 49320,6917.915,95.438,541.237,538.323,0.0
49440.0,STARLINK-3105,PAYLOAD,2022-10-01 04:10:06,15.08833428,0.0002131999999999,53.2163,85.3636,40.2621,319.8529,0.00012542,1.708e-05,0.0,0 STARLINK-3105,1 49440U 21104AJ  22274.17368652  .00001708  00000-0  12542-3 0  9997,2 49440  53.2163  85.3636 0002132  40.2621 319.8529 15.08833428 50449,6917.9,95.438,541.24,538.2909999999998,0.0
49440.0,STARLINK-3105,PAYLOAD,2022-10-01 12:07:01,15.08839088,0.0002148,53.2164,83.8766,40.7418,319.3735,0.00017664,2.524e-05,0.0,0 STARLINK-3105,1 49440U 21104AJ  22274.50488379  .00002524  00000-0  17664-3 0  9990,2 49440  53.2164  83.8766 0002148  40.7418 319.3735 15.08839088 49421,6917.8830000000025,95.438,541.234,538.262,0.0
49440.0,STARLINK-3105,PAYLOAD,2022-10-01 20:03:57,15.08848675,0.0002189999999999,53.2158,82.3897,41.3911,318.7246,0.0004474,6.841e-05,0.0,0 STARLINK-3105,1 49440U 21104AJ  22274.83608663  .00006841  00000-0  44740-3 0  9997,2 49440  53.2158  82.3897 0002190  41.3911 318.7246 15.08848675 49472,6917.854,95.437,541.234,538.2040000000002,0.0
49440.0,STARLINK-3105,PAYLOAD,2022-10-02 04:00:53,15.08852128,0.0002018,53.2159,80.9026,41.7667,318.3479,0.00020071,2.909e-05,0.0,0 STARLINK-3105,1 49440U 21104AJ  22275.16728418  .00002909  00000-0  20071-3 0  9997,2 49440  53.2159  80.9026 0002018  41.7667 318.3479 15.08852128 50599,6917.843000000003,95.437,541.104,538.312,0.0
49440.0,STARLINK-3105,PAYLOAD,2022-10-02 11:57:49,15.08846769,0.0002066999999999,53.2158,79.4159,39.4731,320.6412,1.8412e-05,5e-08,0.0,0 STARLINK-3105,1 49440U 21104AJ  22275.49848450  .00000005  00000-0  18412-4 0  9994,2 49440  53.2158  79.4159 0002067  39.4731 320.6412 15.08846769 49571,6917.86,95.437,541.155,538.295,0.0
49440.0,STARLINK-3105,PAYLOAD,2022-10-02 18:19:21,15.08843047,0.0002081,53.2158,78.2264,39.1052,321.009,-5.9585e-08,-2.89e-06,0.0,0 STARLINK-3105,1 49440U 21104AJ  22275.76344576 -.00000289  00000-0 -59585-7 0  9999,2 49440  53.2158  78.2264 0002081  39.1052 321.0090 15.08843047 50681,6917.871,95.437,541.1759999999998,538.2959999999998,0.0
49440.0,STARLINK-3105,PAYLOAD,2022-10-02 19:54:44,15.08844039,0.0002097,53.2159,77.9291,39.0356,321.0787,2.1091e-05,4.7e-07,0.0,0 STARLINK-3105,1 49440U 21104AJ  22275.82968536  .00000047  00000-0  21091-4 0  9992,2 49440  53.2159  77.9291 0002097  39.0356 321.0787 15.08844039 49628,6917.868,95.437,541.184,538.2819999999998,0.0
49440.0,STARLINK-3105,PAYLOAD,2022-10-03 11:48:35,15.08854769,0.0002138,53.2157,74.9554,39.1855,320.9292,0.00032238,4.848e-05,0.0,0 STARLINK-3105,1 49440U 21104AJ  22276.49208062  .00004848  00000-0  32238-3 0  9994,2 49440  53.2157  74.9554 0002138  39.1855 320.9292 15.08854769 49727,6917.835,95.437,541.179,538.221,0.0
49440.0,STARLINK-3105,PAYLOAD,2022-10-03 19:45:31,15.088537300000002,0.0002198999999999,53.2156,73.4688,37.2227,322.8917,0.00048636,7.464e-05,0.0,0 STARLINK-3105,1 49440U 21104AJ  22276.82328000  .00007464  00000-0  48636-3 0  9992,2 49440  53.2156  73.4688 0002199  37.2227 322.8917 15.08853730 49774,6917.8380000000025,95.437,541.225,538.182,0.0
49440.0,STARLINK-3105,PAYLOAD,2022-10-04 11:39:22,15.08849641,0.0002045999999999,53.2155,70.495,35.8691,324.2438,7.485800000000001e-05,9.04e-06,0.0,0 STARLINK-3105,1 49440U 21104AJ  22277.48567539  .00000904  00000-0  74858-4 0  9995,2 49440  53.2155  70.4950 0002046  35.8691 324.2438 15.08849641 49873,6917.851,95.437,541.131,538.3009999999998,0.0
49440.0,STARLINK-3105,PAYLOAD,2022-10-04 13:14:45,15.08851373,0.0002026,53.2156,70.1974,35.7022,324.4105,0.00021244,3.095e-05,0.0,0 STARLINK-3105,1 49440U 21104AJ  22277.55191550  .00003095  00000-0  21244-3 0  9993,2 49440  53.2156  70.1974 0002026  35.7022 324.4105 15.08851373 50951,6917.846,95.437,541.112,538.309,0.0
49440.0,STARLINK-3105,PAYLOAD,2022-10-04 19:36:17,15.08850415,0.0002089,53.2156,69.0079,35.4447,324.6684,0.00014369,2e-05,0.0,0 STARLINK-3105,1 49440U 21104AJ  22277.81687391  .00002000  00000-0  14369-3 0  9990,2 49440  53.2156  69.0079 0002089  35.4447 324.6684 15.08850415 49926,6917.849,95.437,541.159,538.268,0.0
49440.0,STARLINK-3105,PAYLOAD,2022-10-05 05:08:36,15.08846103,0.0002056999999999,53.2156,67.2238,32.0347,328.077,0.00014669,2.048e-05,0.0,0 STARLINK-3105,1 49440U 21104AJ  22278.21431513  .00002048  00000-0  14669-3 0  9993,2 49440  53.2156  67.2238 0002057  32.0347 328.0770 15.08846103 51050,6917.861999999999,95.437,541.15,538.304,0.0
49440.0,STARLINK-3105,PAYLOAD,2022-10-05 13:05:32,15.08854083,0.0002139,53.2155,65.737,31.8129,328.2992,0.00070542,0.00010961,0.0,0 STARLINK-3105,1 49440U 21104AJ  22278.54551325  .00010961  00000-0  70542-3 0  9998,2 49440  53.2155  65.7370 0002139  31.8129 328.2992 15.08854083 50036,6917.837,95.437,541.182,538.2230000000002,0.0
49440.0,STARLINK-3105,PAYLOAD,2022-10-05 19:27:05,15.08845564,0.0002130999999999,53.2156,64.5473,34.941,325.1722,0.00052738,8.116e-05,0.0,0 STARLINK-3105,1 49440U 21104AJ  22278.81047637  .00008116  00000-0  52738-3 0  9990,2 49440  53.2156  64.5473 0002131  34.9410 325.1722 15.08845564 50072,6917.863,95.437,541.203,538.254,0.0
49440.0,STARLINK-3105,PAYLOAD,2022-10-06 03:24:00,15.088437699999998,0.0002177999999999,53.2157,63.0606,35.1994,324.9142,0.00040442,6.155e-05,0.0,0 STARLINK-3105,1 49440U 21104AJ  22279.14167669  .00006155  00000-0  40442-3 0  9995,2 49440  53.2157  63.0606 0002178  35.1994 324.9142 15.08843770 51190,6917.869000000002,95.437,541.241,538.227,0.0
49440.0,STARLINK-3105,PAYLOAD,2022-10-06 12:56:19,15.08847622,0.0002145,53.2161,61.2761,35.1625,324.9509,0.00023193,3.406e-05,0.0,0 STARLINK-3105,1 49440U 21104AJ  22279.53911537  .00003406  00000-0  23193-3 0  9999,2 49440  53.2161  61.2761 0002145  35.1625 324.9509 15.08847622 50187,6917.857,95.437,541.206,538.238,0.0
49440.0,STARLINK-3105,PAYLOAD,2022-10-06 16:07:05,15.08849339,0.0002141,53.2161,60.6813,34.7707,325.3425,0.00034758,5.249e-05,0.0,0 STARLINK-3105,1 49440U 21104AJ  22279.67159487  .00005249  00000-0  34758-3 0  9998,2 49440  53.2161  60.6813 0002141  34.7707 325.3425 15.08849339 50202,6917.852,95.437,541.198,538.236,0.0
49440.0,STARLINK-3105,PAYLOAD,2022-10-07 12:47:06,15.08850966,0.0002206,53.2164,56.8153,34.7861,325.3275,0.00028433,4.241e-05,0.0,0 STARLINK-3105,1 49440U 21104AJ  22280.53271144  .00004241  00000-0  28433-3 0  9994,2 49440  53.2164  56.8153 0002206  34.7861 325.3275 15.08850966 51406,6917.847,95.437,541.238,538.186,0.0
49440.0,STARLINK-3105,PAYLOAD,2022-10-08 11:02:30,15.08845586,0.0002303,53.2168,52.6524,30.8528,329.2599,0.00013367,1.84e-05,0.0,0 STARLINK-3105,1 49440U 21104AJ  22281.46007089  .00001840  00000-0  13367-3 0  9994,2 49440  53.2168  52.6524 0002303  30.8528 329.2599 15.08845586 51540,6917.863,95.437,541.321,538.135,0.0
